[{"OBJECT_NAME":"CONTINUUM-1","OBJECT_ID":"2023-001AN","EPOCH":"2026-03-09T23:17:35.458656","MEAN_MOTION":15.27981258,"ECCENTRICITY":0.00109493,"INCLINATION":97.3456,"RA_OF_ASC_NODE":133.3964,"ARG_OF_PERICENTER":60.1976,"MEAN_ANOMALY":300.0351,"EPHEMERIS_TYPE":0,"CLASSIFICATION_TYPE":"U","NORAD_CAT_ID":55045,"ELEMENT_SET_NO":999,"REV_AT_EPOCH":17709,"BSTAR":0.00052859897,"MEAN_MOTION_DOT":0.00014395,"MEAN_MOTION_DDOT":0},{"OBJECT_NAME":"STARLINK-31035","OBJECT_ID":"2023-192B","EPOCH":"2026-03-09T23:20:57.031584","MEAN_MOTION":15.30222302,"ECCENTRICITY":7.916e-5,"INCLINATION":53.1615,"RA_OF_ASC_NODE":48.2681,"ARG_OF_PERICENTER":112.6293,"MEAN_ANOMALY":247.4792,"EPHEMERIS_TYPE":0,"CLASSIFICATION_TYPE":"U","NORAD_CAT_ID":58532,"ELEMENT_SET_NO":999,"REV_AT_EPOCH":12621,"BSTAR":0.00015725891,"MEAN_MOTION_DOT":4.304e-5,"MEAN_MOTION_DDOT":0}]
